TIANZHOU-10             
1 69049U 26102A   26131.49630320  .00032325  00000+0  36027-3 0  9994
2 69049  41.4667 185.1700 0004284 287.6488  72.3883 15.62123975    81
