{
  "norad_id": 69049,
  "name": "TIANZHOU-10",
  "history": [
    {
      "epoch": "2026-05-11T11:54:40.596480Z",
      "apogee_km": 384.41889425647696,
      "perigee_km": 378.6268121146768,
      "latitude_deg": -1.7019660123061076e-05,
      "longitude_deg": 137.21649209658239,
      "height_km": 380.24693977403393,
      "semi_major_axis_km": 6759.659853185577,
      "eccentricity": 0.00042843,
      "inclination_deg": 41.4667,
      "raan_deg": 185.17,
      "arg_perigee_deg": 287.6488,
      "mean_anomaly_deg": 72.3883,
      "mean_motion_rev_day": 15.62123975
    }
  ]
}